[
    {
        "CCSDS_OMM_VERS": "3.0",
        "COMMENT": "GENERATED VIA SPACE-TRACK.ORG API",
        "CREATION_DATE": "2025-03-02T14:56:18",
        "ORIGINATOR": "18 SPCS",
        "OBJECT_NAME": "COSMOS 2471 (GLONASS)",
        "OBJECT_ID": "2011-009A",
        "CENTER_NAME": "EARTH",
        "REF_FRAME": "TEME",
        "TIME_SYSTEM": "UTC",
        "MEAN_ELEMENT_THEORY": "SGP4",
        "EPOCH": "2025-03-02T07:21:12.115008",
        "MEAN_MOTION": "2.12911242",
        "ECCENTRICITY": "0.00095180",
        "INCLINATION": "65.6648",
        "RA_OF_ASC_NODE": "330.3886",
        "ARG_OF_PERICENTER": "327.8755",
        "MEAN_ANOMALY": "133.2353",
        "EPHEMERIS_TYPE": "0",
        "CLASSIFICATION_TYPE": "U",
        "NORAD_CAT_ID": "37372",
        "ELEMENT_SET_NO": "999",
        "REV_AT_EPOCH": "10902",
        "BSTAR": "0.00000000000000",
        "MEAN_MOTION_DOT": "-0.00000049",
        "MEAN_MOTION_DDOT": "0.0000000000000",
        "SEMIMAJOR_AXIS": "25523.258",
        "PERIOD": "676.338",
        "APOAPSIS": "19169.416",
        "PERIAPSIS": "19120.830",
        "OBJECT_TYPE": "PAYLOAD",
        "RCS_SIZE": "LARGE",
        "COUNTRY_CODE": "CIS",
        "LAUNCH_DATE": "2011-02-26",
        "SITE": "PKMTR",
        "DECAY_DATE": null,
        "FILE": "4657069",
        "GP_ID": "282066655",
        "TLE_LINE0": "0 COSMOS 2471 (GLONASS)",
        "TLE_LINE1": "1 37372U 11009A   25061.30639022 -.00000049  00000-0  00000+0 0  9995",
        "TLE_LINE2": "2 37372  65.6648 330.3886 0009518 327.8755 133.2353  2.12911242109026"
    }
]